[{"OBJECT_NAME":"ONEWEB-0273","OBJECT_ID":"2021-060AA","EPOCH":"2025-08-14T13:37:07.171968","MEAN_MOTION":13.16592443,"ECCENTRICITY":0.0001899,"INCLINATION":87.903,"RA_OF_ASC_NODE":289.9018,"ARG_OF_PERICENTER":91.5957,"MEAN_ANOMALY":268.5391,"EPHEMERIS_TYPE":0,"CLASSIFICATION_TYPE":"U","NORAD_CAT_ID":48991,"ELEMENT_SET_NO":999,"REV_AT_EPOCH":19924,"BSTAR":0.00012759,"MEAN_MOTION_DOT":6.2e-7,"MEAN_MOTION_DDOT":0},{"OBJECT_NAME":"ONEWEB-0274","OBJECT_ID":"2021-060AB","EPOCH":"2025-08-14T14:13:36.169536","MEAN_MOTION":13.16594368,"ECCENTRICITY":0.0002432,"INCLINATION":87.9024,"RA_OF_ASC_NODE":289.9304,"ARG_OF_PERICENTER":94.1598,"MEAN_ANOMALY":265.981,"EPHEMERIS_TYPE":0,"CLASSIFICATION_TYPE":"U","NORAD_CAT_ID":48992,"ELEMENT_SET_NO":999,"REV_AT_EPOCH":19928,"BSTAR":-1.0634e-5,"MEAN_MOTION_DOT":9.0e-8,"MEAN_MOTION_DDOT":0},{"OBJECT_NAME":"ONEWEB-0275","OBJECT_ID":"2021-060AC","EPOCH":"2025-08-14T12:08:12.103296","MEAN_MOTION":13.16595332,"ECCENTRICITY":0.000208,"INCLINATION":87.903,"RA_OF_ASC_NODE":289.9096,"ARG_OF_PERICENTER":93.7067,"MEAN_ANOMALY":266.4302,"EPHEMERIS_TYPE":0,"CLASSIFICATION_TYPE":"U","NORAD_CAT_ID":48993,"ELEMENT_SET_NO":999,"REV_AT_EPOCH":19920,"BSTAR":-1.4207e-5,"MEAN_MOTION_DOT":7.0e-8,"MEAN_MOTION_DDOT":0},{"OBJECT_NAME":"ONEWEB-0276","OBJECT_ID":"2021-060AD","EPOCH":"2025-08-14T11:06:38.604384","MEAN_MOTION":13.16593248,"ECCENTRICITY":0.0001835,"INCLINATION":87.9028,"RA_OF_ASC_NODE":289.9151,"ARG_OF_PERICENTER":94.2167,"MEAN_ANOMALY":265.9174,"EPHEMERIS_TYPE":0,"CLASSIFICATION_TYPE":"U","NORAD_CAT_ID":48994,"ELEMENT_SET_NO":999,"REV_AT_EPOCH":19921,"BSTAR":0.00022665,"MEAN_MOTION_DOT":1.0e-6,"MEAN_MOTION_DDOT":0},{"OBJECT_NAME":"ONEWEB-0277","OBJECT_ID":"2021-060AE","EPOCH":"2025-08-14T11:24:51.676704","MEAN_MOTION":13.16596852,"ECCENTRICITY":0.0002089,"INCLINATION":87.9025,"RA_OF_ASC_NODE":289.9467,"ARG_OF_PERICENTER":84.6504,"MEAN_ANOMALY":275.4865,"EPHEMERIS_TYPE":0,"CLASSIFICATION_TYPE":"U","NORAD_CAT_ID":48995,"ELEMENT_SET_NO":999,"REV_AT_EPOCH":19920,"BSTAR":0.00047589,"MEAN_MOTION_DOT":1.95e-6,"MEAN_MOTION_DDOT":0},{"OBJECT_NAME":"ONEWEB-0278","OBJECT_ID":"2021-060AF","EPOCH":"2025-08-14T11:11:11.825376","MEAN_MOTION":13.16593443,"ECCENTRICITY":0.0001811,"INCLINATION":87.9028,"RA_OF_ASC_NODE":289.9112,"ARG_OF_PERICENTER":100.22,"MEAN_ANOMALY":259.9135,"EPHEMERIS_TYPE":0,"CLASSIFICATION_TYPE":"U","NORAD_CAT_ID":48996,"ELEMENT_SET_NO":999,"REV_AT_EPOCH":19933,"BSTAR":0.00047943,"MEAN_MOTION_DOT":1.96e-6,"MEAN_MOTION_DDOT":0},{"OBJECT_NAME":"ONEWEB-0279","OBJECT_ID":"2021-060AG","EPOCH":"2025-08-14T11:22:36.780384","MEAN_MOTION":13.16594222,"ECCENTRICITY":0.0002122,"INCLINATION":87.9029,"RA_OF_ASC_NODE":289.9052,"ARG_OF_PERICENTER":88.5748,"MEAN_ANOMALY":271.5626,"EPHEMERIS_TYPE":0,"CLASSIFICATION_TYPE":"U","NORAD_CAT_ID":48997,"ELEMENT_SET_NO":999,"REV_AT_EPOCH":19926,"BSTAR":-9.3297e-6,"MEAN_MOTION_DOT":9.0e-8,"MEAN_MOTION_DDOT":0},{"OBJECT_NAME":"ONEWEB-0280","OBJECT_ID":"2021-060AH","EPOCH":"2025-08-14T11:44:15.357696","MEAN_MOTION":13.1659444,"ECCENTRICITY":0.0001717,"INCLINATION":87.903,"RA_OF_ASC_NODE":289.9095,"ARG_OF_PERICENTER":89.3751,"MEAN_ANOMALY":270.7577,"EPHEMERIS_TYPE":0,"CLASSIFICATION_TYPE":"U","NORAD_CAT_ID":48998,"ELEMENT_SET_NO":999,"REV_AT_EPOCH":19920,"BSTAR":0.00045933,"MEAN_MOTION_DOT":1.88e-6,"MEAN_MOTION_DDOT":0},{"OBJECT_NAME":"ONEWEB-0281","OBJECT_ID":"2021-060AJ","EPOCH":"2025-08-14T13:41:40.656480","MEAN_MOTION":13.16594662,"ECCENTRICITY":0.0002163,"INCLINATION":87.9029,"RA_OF_ASC_NODE":289.8905,"ARG_OF_PERICENTER":97.1897,"MEAN_ANOMALY":262.948,"EPHEMERIS_TYPE":0,"CLASSIFICATION_TYPE":"U","NORAD_CAT_ID":48999,"ELEMENT_SET_NO":999,"REV_AT_EPOCH":19928,"BSTAR":-0.00011861,"MEAN_MOTION_DOT":-3.2e-7,"MEAN_MOTION_DDOT":0},{"OBJECT_NAME":"ONEWEB-0282","OBJECT_ID":"2021-060AK","EPOCH":"2025-08-14T05:17:48.758208","MEAN_MOTION":13.16593441,"ECCENTRICITY":0.0001916,"INCLINATION":87.9026,"RA_OF_ASC_NODE":289.9705,"ARG_OF_PERICENTER":91.4244,"MEAN_ANOMALY":268.7106,"EPHEMERIS_TYPE":0,"CLASSIFICATION_TYPE":"U","NORAD_CAT_ID":49000,"ELEMENT_SET_NO":999,"REV_AT_EPOCH":19921,"BSTAR":7.9468e-6,"MEAN_MOTION_DOT":1.6e-7,"MEAN_MOTION_DDOT":0},{"OBJECT_NAME":"ONEWEB-0283","OBJECT_ID":"2021-060AL","EPOCH":"2025-08-14T05:01:51.904992","MEAN_MOTION":13.16594128,"ECCENTRICITY":0.0002068,"INCLINATION":87.9024,"RA_OF_ASC_NODE":289.9767,"ARG_OF_PERICENTER":90.8634,"MEAN_ANOMALY":269.2734,"EPHEMERIS_TYPE":0,"CLASSIFICATION_TYPE":"U","NORAD_CAT_ID":49001,"ELEMENT_SET_NO":999,"REV_AT_EPOCH":19922,"BSTAR":-6.7411e-5,"MEAN_MOTION_DOT":-1.3e-7,"MEAN_MOTION_DDOT":0},{"OBJECT_NAME":"ONEWEB-0284","OBJECT_ID":"2021-060AM","EPOCH":"2025-08-14T10:21:02.654208","MEAN_MOTION":13.16593852,"ECCENTRICITY":0.0001725,"INCLINATION":87.9039,"RA_OF_ASC_NODE":289.9088,"ARG_OF_PERICENTER":100.143,"MEAN_ANOMALY":259.9896,"EPHEMERIS_TYPE":0,"CLASSIFICATION_TYPE":"U","NORAD_CAT_ID":49002,"ELEMENT_SET_NO":999,"REV_AT_EPOCH":19923,"BSTAR":8.536e-6,"MEAN_MOTION_DOT":1.6e-7,"MEAN_MOTION_DDOT":0},{"OBJECT_NAME":"ONEWEB-0285","OBJECT_ID":"2021-075A","EPOCH":"2025-08-14T12:15:21.392064","MEAN_MOTION":13.1244103,"ECCENTRICITY":0.0001703,"INCLINATION":87.8848,"RA_OF_ASC_NODE":51.6139,"ARG_OF_PERICENTER":88.2018,"MEAN_ANOMALY":271.9305,"EPHEMERIS_TYPE":0,"CLASSIFICATION_TYPE":"U","NORAD_CAT_ID":49075,"ELEMENT_SET_NO":999,"REV_AT_EPOCH":19498,"BSTAR":0.0011247,"MEAN_MOTION_DOT":4.17e-6,"MEAN_MOTION_DDOT":0},{"OBJECT_NAME":"ONEWEB-0286","OBJECT_ID":"2021-075B","EPOCH":"2025-08-14T11:49:15.044736","MEAN_MOTION":13.12444376,"ECCENTRICITY":0.0001827,"INCLINATION":87.887,"RA_OF_ASC_NODE":51.6484,"ARG_OF_PERICENTER":94.4341,"MEAN_ANOMALY":265.6996,"EPHEMERIS_TYPE":0,"CLASSIFICATION_TYPE":"U","NORAD_CAT_ID":49076,"ELEMENT_SET_NO":999,"REV_AT_EPOCH":19433,"BSTAR":0.00067288,"MEAN_MOTION_DOT":2.55e-6,"MEAN_MOTION_DDOT":0},{"OBJECT_NAME":"ONEWEB-0287","OBJECT_ID":"2021-075C","EPOCH":"2025-08-14T12:52:24.085632","MEAN_MOTION":13.17651282,"ECCENTRICITY":0.0001755,"INCLINATION":87.9034,"RA_OF_ASC_NODE":66.8847,"ARG_OF_PERICENTER":101.4629,"MEAN_ANOMALY":258.6699,"EPHEMERIS_TYPE":0,"CLASSIFICATION_TYPE":"U","NORAD_CAT_ID":49077,"ELEMENT_SET_NO":999,"REV_AT_EPOCH":19324,"BSTAR":-0.000109,"MEAN_MOTION_DOT":-2.9e-7,"MEAN_MOTION_DDOT":0},{"OBJECT_NAME":"ONEWEB-0288","OBJECT_ID":"2021-075D","EPOCH":"2025-08-14T11:14:24.540576","MEAN_MOTION":13.12442898,"ECCENTRICITY":0.0001621,"INCLINATION":87.8856,"RA_OF_ASC_NODE":51.6165,"ARG_OF_PERICENTER":92.2109,"MEAN_ANOMALY":267.9205,"EPHEMERIS_TYPE":0,"CLASSIFICATION_TYPE":"U","NORAD_CAT_ID":49078,"ELEMENT_SET_NO":999,"REV_AT_EPOCH":19495,"BSTAR":-0.0014096,"MEAN_MOTION_DOT":-4.94e-6,"MEAN_MOTION_DDOT":0},{"OBJECT_NAME":"ONEWEB-0289","OBJECT_ID":"2021-075E","EPOCH":"2025-08-14T11:58:45.165504","MEAN_MOTION":13.17556084,"ECCENTRICITY":0.0001167,"INCLINATION":87.9025,"RA_OF_ASC_NODE":66.9222,"ARG_OF_PERICENTER":81.154,"MEAN_ANOMALY":278.9724,"EPHEMERIS_TYPE":0,"CLASSIFICATION_TYPE":"U","NORAD_CAT_ID":49079,"ELEMENT_SET_NO":999,"REV_AT_EPOCH":19381,"BSTAR":0.037472,"MEAN_MOTION_DOT":0.00014565,"MEAN_MOTION_DDOT":0}]
