ONEWEB-0273             
1 48991U 21060AA  25226.56744412  .00000062  00000+0  12759-3 0  9994
2 48991  87.9030 289.9018 0001899  91.5957 268.5391 13.16592443199247
ONEWEB-0274             
1 48992U 21060AB  25226.59277974  .00000009  00000+0 -10634-4 0  9995
2 48992  87.9024 289.9304 0002432  94.1598 265.9810 13.16594368199282
ONEWEB-0275             
1 48993U 21060AC  25226.50569564  .00000007  00000+0 -14207-4 0  9994
2 48993  87.9030 289.9096 0002080  93.7067 266.4302 13.16595332199209
ONEWEB-0276             
1 48994U 21060AD  25226.46294681  .00000100  00000+0  22665-3 0  9994
2 48994  87.9028 289.9151 0001835  94.2167 265.9174 13.16593248199219
ONEWEB-0277             
1 48995U 21060AE  25226.47559811  .00000195  00000+0  47589-3 0  9991
2 48995  87.9025 289.9467 0002089  84.6504 275.4865 13.16596852199203
ONEWEB-0278             
1 48996U 21060AF  25226.46610909  .00000196  00000+0  47943-3 0  9992
2 48996  87.9028 289.9112 0001811 100.2200 259.9135 13.16593443199338
ONEWEB-0279             
1 48997U 21060AG  25226.47403681  .00000009  00000+0 -93297-5 0  9990
2 48997  87.9029 289.9052 0002122  88.5748 271.5626 13.16594222199267
ONEWEB-0280             
1 48998U 21060AH  25226.48906664  .00000188  00000+0  45933-3 0  9990
2 48998  87.9030 289.9095 0001717  89.3751 270.7577 13.16594440199201
ONEWEB-0281             
1 48999U 21060AJ  25226.57060945 -.00000032  00000+0 -11861-3 0  9997
2 48999  87.9029 289.8905 0002163  97.1897 262.9480 13.16594662199283
ONEWEB-0282             
1 49000U 21060AK  25226.22070322  .00000016  00000+0  79468-5 0  9992
2 49000  87.9026 289.9705 0001916  91.4244 268.7106 13.16593441199217
ONEWEB-0283             
1 49001U 21060AL  25226.20962853 -.00000013  00000+0 -67411-4 0  9993
2 49001  87.9024 289.9767 0002068  90.8634 269.2734 13.16594128199226
ONEWEB-0284             
1 49002U 21060AM  25226.43128072  .00000016  00000+0  85360-5 0  9991
2 49002  87.9039 289.9088 0001725 100.1430 259.9896 13.16593852199236
ONEWEB-0285             
1 49075U 21075A   25226.51066426  .00000417  00000+0  11247-2 0  9995
2 49075  87.8848  51.6139 0001703  88.2018 271.9305 13.12441030194980
ONEWEB-0286             
1 49076U 21075B   25226.49253524  .00000255  00000+0  67288-3 0  9997
2 49076  87.8870  51.6484 0001827  94.4341 265.6996 13.12444376194335
ONEWEB-0287             
1 49077U 21075C   25226.53638988 -.00000029  00000+0 -10900-3 0  9994
2 49077  87.9034  66.8847 0001755 101.4629 258.6699 13.17651282193240
ONEWEB-0288             
1 49078U 21075D   25226.46833959 -.00000494  00000+0 -14096-2 0  9997
2 49078  87.8856  51.6165 0001621  92.2109 267.9205 13.12442898194950
ONEWEB-0289             
1 49079U 21075E   25226.49913386  .00014565  00000+0  37472-1 0  9998
2 49079  87.9025  66.9222 0001167  81.1540 278.9724 13.17556084193814
